LUCH 5B                 
1 38977U 12061A   18011.80841705 -.00000137  00000-0  00000-0 0  9990
2 38977   3.9574  73.1666 0004747 229.7038  83.0217  1.00269384 19303
YAMAL 300K              
1 38978U 12061B   18011.67247390  .00000068  00000-0  00000-0 0  9998
2 38978   0.0233  48.1360 0000836 185.6628 302.3742  1.00269712 19009
STAR ONE C3             
1 38991U 12062A   18011.82754245 -.00000251  00000-0  00000-0 0  9998
2 38991   0.0182 316.8361 0001972 330.5868  46.7597  1.00272603 18900
EUTELSAT 21B            
1 38992U 12062B   18011.63143840  .00000127  00000-0  00000-0 0  9992
2 38992   0.0628  19.6893 0002493 275.4570  64.8102  1.00271950 18985
ECHOSTAR 16             
1 39008U 12065A   18011.86160933 -.00000284  00000-0  00000+0 0  9995
2 39008   0.0156  48.0831 0001869 249.5391  62.3414  1.00271452 18949
CHINASAT 12 (ZX 12)     
1 39017U 12067A   18011.94297677 -.00000209  00000-0  00000-0 0  9990
2 39017   0.0190  78.4489 0002630 220.7040 239.1923  1.00272320 18643
EUTELSAT 70B            
1 39020U 12069A   18011.49586308 -.00000046  00000-0  00000-0 0  9997
2 39020   0.0583  24.2026 0003108 258.7678  76.9772  1.00272606 18644
YAMAL 402               
1 39022U 12070A   18011.95406488  .00000084  00000-0  10000-3 0  9997
2 39022   0.0223  82.9063 0003060 219.7199 207.1294  1.00273954 18735
SKYNET 5D               
1 39034U 12075A   18011.89222316  .00000098  00000-0  00000-0 0  9995
2 39034   0.0689   1.9258 0004076 285.7595 197.5451  1.00271185 18306
MEXSAT 3                
1 39035U 12075B   18011.01194887 -.00000029  00000-0  00000-0 0  9996
2 39035   0.0154  57.1982 0002294 236.4241  66.3536  1.00271075 18318
TDRS 11                 
1 39070U 13004A   18011.08049280  .00000094  00000-0  00000-0 0  9992
2 39070   5.1165 328.5952 0011579 298.4514  61.5810  1.00263067 15821
AMAZONAS 3              
1 39078U 13006A   18010.86280674 -.00000286  00000-0  00000-0 0  9995
2 39078   0.0501 220.0718 0004319  34.6395 105.2228  1.00272392 14014
AZERSPACE 1             
1 39079U 13006B   18011.56386246  .00000130  00000-0  00000-0 0  9993
2 39079   0.0196  32.3824 0002078 293.7502  33.8541  1.00270344 17949
EUTELSAT 117 WEST A     
1 39122U 13012A   18011.01735901 -.00000016  00000-0  00000-0 0  9999
2 39122   0.0301  32.1173 0003109 267.7688  60.0831  1.00271099 17585
ANIK G1                 
1 39127U 13014A   18010.99113278 -.00000077  00000-0  00000-0 0  9996
2 39127   0.0265 294.2276 0002951 350.1247  75.5969  1.00271106 17409
CHINASAT 11 (ZX 11)     
1 39157U 13020A   18011.85184950 -.00000293  00000-0  00000-0 0  9997
2 39157   0.0203  81.0683 0004130 208.2975 226.5606  1.00268285 17286
EUTELSAT 7B             
1 39163U 13022A   18011.67186155  .00000046  00000-0  00000-0 0  9990
2 39163   0.0493  46.2613 0005149 291.3251  22.3734  1.00273038 17119
SES-6                   
1 39172U 13026A   18011.80342884 -.00000263  00000-0  00000+0 0  9993
2 39172   0.0418 311.1966 0001496 336.0857  72.6839  1.00271972 16861
IRNSS-1A                
1 39199U 13034A   18011.84705065  .00000078  00000-0  00000+0 0  9992
2 39199  29.1691 111.4483 0020906 183.4401 176.4767  1.00278639 16776
ALPHASAT                
1 39215U 13038A   18011.69826475  .00000134  00000-0  00000-0 0  9991
2 39215   1.8489  27.3220 0002172 270.3500  89.6598  1.00270622 13185
INSAT-3D                
1 39216U 13038B   18011.46390574 -.00000158  00000-0  00000-0 0  9990
2 39216   0.1472 271.7880 0001447  43.3048  44.8779  1.00270748 16250
EUTELSAT 25B            
1 39233U 13044A   18011.62061150  .00000140  00000-0  00000-0 0  9999
2 39233   0.0452   4.0629 0001747 306.3232  49.5811  1.00269880 15774
GSAT-7                  
1 39234U 13044B   18011.48621535 -.00000079  00000-0  00000-0 0  9995
2 39234   0.0925 267.3961 0005244  27.3328  65.1987  1.00271918 14496
AMOS-4                  
1 39237U 13045A   18011.51104384  .00000004  00000-0  00000-0 0  9998
2 39237   0.0031 345.3421 0002521 334.4647  40.1745  1.00270856 16099
ASTRA 2E                
1 39285U 13056A   18011.61220766  .00000148  00000-0  00000-0 0  9996
2 39285   0.0586  33.8440 0002704 266.3942  59.7174  1.00269436 15601
SIRIUS FM-6             
1 39360U 13058A   18011.01574988 -.00000020  00000-0  00000-0 0  9994
2 39360   0.0108 317.9121 0001204 212.8350 189.2373  1.00271974 15307
RADUGA-1M 3             
1 39375U 13062A   18011.85743649 -.00000040  00000-0  00000+0 0  9990
2 39375   0.0342 174.6642 0001762 154.3942 160.9018  1.00272309 15265
SES-8                   
1 39460U 13071A   18012.42535777 -.00000270  00000-0  00000+0 0  9995
2 39460   0.0519 266.3589 0000658  58.0011  35.6185  1.00270892 15016
INMARSAT 5-F1           
1 39476U 13073A   18011.51784424  .00000025  00000-0  00000+0 0  9995
2 39476   0.0188  43.8396 0000268 286.1479  29.9935  1.00272091 15065
TKSAT-1 (TUPAC KATARI)  
1 39481U 13075A   18011.83240535 -.00000197  00000-0  00000-0 0  9990
2 39481   0.0418 131.1222 0002184 181.6650  10.9281  1.00273737 14729
EXPRESS-AM5             
1 39487U 13077A   18010.42410425 -.00000285  00000-0  00000+0 0  9996
2 39487   0.0529 218.6821 0000530 228.3470 315.5515  1.00272210 15490
GSAT-14                 
1 39498U 14001A   18011.48626795 -.00000080  00000-0  00000-0 0  9996
2 39498   0.0290 136.9353 0001222 198.8211  24.2201  1.00272107 14582
THAICOM 6               
1 39500U 14002A   18011.89837635 -.00000123  00000-0  00000-0 0  9991
2 39500   0.0879 116.4504 0000539  71.4199 325.3617  1.00271270 14587
TDRS 12                 
1 39504U 14004A   18011.73819172 -.00000268  00000-0  00000+0 0  9995
2 39504   5.7461 335.9652 0005187 335.0230  25.0719  1.00269167 14580
ABS-2                   
1 39508U 14006A   18011.48362883 -.00000089  00000-0  00000-0 0  9997
2 39508   0.0402 326.3515 0003815 350.1092  43.4915  1.00271475 14452
ATHENA-FIDUS            
1 39509U 14006B   18011.58653771  .00000151  00000-0  00000+0 0  9996
2 39509   0.0183  46.6531 0000854 259.7757  53.5457  1.00273995 14633
TURKSAT 4A              
1 39522U 14007A   18011.57468784  .00000143  00000-0  00000-0 0  9991
2 39522   0.0775 270.9319 0004795  14.3440  74.6534  1.00275336 14139
EXPRESS-AT1             
1 39612U 14010A   18012.44493727  .00000078  00000-0  00000+0 0  9993
2 39612   0.0502 215.1532 0000208 139.6914 333.1916  1.00272710 14182
EXPRESS-AT2             
1 39613U 14010B   18010.85779193 -.00000285  00000-0  00000+0 0  9992
2 39613   0.0564 221.0253 0000335 229.5005 108.4256  1.00271627 14005
AMAZONAS 4A             
1 39616U 14011A   18011.89615861 -.00000255  00000-0  00000+0 0  9999
2 39616   0.0968  80.5551 0003120 250.5475  28.8626  1.00269380 14004
ASTRA 5B                
1 39617U 14011B   18011.82962601  .00000152  00000-0  00000-0 0  9996
2 39617   0.0546 310.7848 0002607 323.5251 167.1224  1.00272390 13809
IRNSS-1B                
1 39635U 14017A   18011.34933571  .00000073  00000-0  00000+0 0  9994
2 39635  28.6957 291.6038 0017993 186.8530 173.1640  1.00274770 13930
LUCH 5V                 
1 39727U 14023A   18011.80740495 -.00000268  00000-0  00000-0 0  9993
2 39727   2.2921 299.0745 0003936  18.5916 178.9749  1.00270477531656
KAZSAT-3                
1 39728U 14023B   18011.52923557  .00000058  00000-0  00000-0 0  9991
2 39728   0.0140  49.8280 0000420 315.5656 354.5893  1.00272087 11583
EUTELSAT 3B             
1 39773U 14030A   18012.26915272  .00000018  00000-0  00000+0 0  9991
2 39773   0.0656  37.7568 0002868 227.4056 306.5154  1.00272786 13353
ASIASAT 8               
1 40107U 14046A   18011.70198232 -.00000036  00000-0  00000+0 0  9999
2 40107   0.0163 359.7892 0001848 275.9151  84.2572  1.00270901 12638
ASIASAT 6               
1 40141U 14052A   18012.49351499 -.00000363  00000-0  00000+0 0  9990
2 40141   0.0502 277.2944 0000682  88.3660  43.8171  1.00270714 12303
OPTUS 10                
1 40146U 14054A   18012.23419041 -.00000076  00000-0  00000+0 0  9998
2 40146   0.0293  93.1248 0001513 203.7488  63.0936  1.00270949 12260
MEASAT-3B               
1 40147U 14054B   18011.43769266 -.00000244  00000-0  00000+0 0  9994
2 40147   0.0537 225.5537 0002561  35.9392  98.4603  1.00272011 12307
LUCH (OLYMP)            
1 40258U 14058A   18011.19052161  .00000148  00000-0  10000-3 0  9990
2 40258   0.0355 147.4529 0005548 140.2084 289.7201  1.00342398 12065
HIMAWARI-8              
1 40267U 14060A   18012.29887383 -.00000277  00000-0  00000+0 0  9996
2 40267   0.0184  53.2299 0000679 260.9401  45.8245  1.00270056 12000
IRNSS-1C                
1 40269U 14061A   18011.13295540 -.00000162  00000-0  00000-0 0  9993
2 40269   2.6439 241.0837 0021581   4.9223 355.3749  1.00275287 11818
INTELSAT 30 (IS-30)     
1 40271U 14062A   18012.26172365 -.00000152  00000-0  00000+0 0  9999
2 40271   0.0157  53.3712 0001950  51.7499   5.7235  1.00269031 11905
ARSAT 1                 
1 40272U 14062B   18011.82754245 -.00000261  00000-0  00000-0 0  9996
2 40272   0.0454 247.9942 0001343  56.7146  32.6576  1.00271060 11746
EXPRESS-AM6             
1 40277U 14064A   18012.06001205  .00000096  00000-0  00000+0 0  9995
2 40277   0.0111 238.2461 0000346 216.8245  91.0119  1.00274988 11802
GSAT-16                 
1 40332U 14078A   18011.53896401  .00000082  00000-0  00000-0 0  9999
2 40332   0.0622  99.2286 0003173 335.2811 285.5078  1.00273253 11265
DIRECTV 14              
1 40333U 14078B   18011.73240455 -.00000127  00000-0  00000-0 0  9995
2 40333   0.0178 315.5608 0000199 160.6063 159.4250  1.00271100 11291
YAMAL 401               
1 40345U 14082A   18010.62176358 -.00000232  00000-0  00000-0 0  9997
2 40345   0.0511 141.9136 0000828 207.7623  74.1521  1.00270178 11531
ASTRA 2G                
1 40364U 14089A   18011.61320047  .00000147  00000-0  00000-0 0  9995
2 40364   0.0350 333.9877 0002236  50.9804 335.0252  1.00272239 11105
